{
    "links": {
        "self": "http://www.neowsapp.com/rest/v1/neo/3736235?api_key=iIulBulltgU6a56xZRHN4H3l9WmuAYTsLGpBGhQ2"
    },
    "id": "3736235",
    "neo_reference_id": "3736235",
    "name": "(2015 XN129)",
    "designation": "2015 XN129",
    "nasa_jpl_url": "http://ssd.jpl.nasa.gov/sbdb.cgi?sstr=3736235",
    "absolute_magnitude_h": 27.9,
    "estimated_diameter": {
        "kilometers": {
            "estimated_diameter_min": 0.0069912523,
            "estimated_diameter_max": 0.0156329154
        },
        "meters": {
            "estimated_diameter_min": 6.9912523225,
            "estimated_diameter_max": 15.6329154409
        },
        "miles": {
            "estimated_diameter_min": 0.0043441614,
            "estimated_diameter_max": 0.0097138403
        },
        "feet": {
            "estimated_diameter_min": 22.9371802696,
            "estimated_diameter_max": 51.289094295
        }
    },
    "is_potentially_hazardous_asteroid": false,
    "close_approach_data": [
        {
            "close_approach_date": "2015-12-09",
            "close_approach_date_full": "2015-Dec-09 19:26",
            "epoch_date_close_approach": 1449689160000,
            "relative_velocity": {
                "kilometers_per_second": "5.0347551752",
                "kilometers_per_hour": "18125.1186305409",
                "miles_per_hour": "11262.2438512936"
            },
            "miss_distance": {
                "astronomical": "0.0427004739",
                "lunar": "16.6104843471",
                "kilometers": "6387899.943430593",
                "miles": "3969256.9679564634"
            },
            "orbiting_body": "Earth"
        }
    ],
    "orbital_data": {
        "orbit_id": "3",
        "orbit_determination_date": "2017-04-06 08:30:07",
        "first_observation_date": "2015-12-04",
        "last_observation_date": "2015-12-08",
        "data_arc_in_days": 4,
        "observations_used": 25,
        "orbit_uncertainty": "8",
        "minimum_orbit_intersection": ".0410643",
        "jupiter_tisserand_invariant": "3.935",
        "epoch_osculation": "2457362.5",
        "eccentricity": ".4341335158711256",
        "semi_major_axis": "1.812156692146841",
        "inclination": ".1423959736636832",
        "ascending_node_longitude": "225.0437988293305",
        "orbital_period": "891.0294279305509",
        "perihelion_distance": "1.025438736075744",
        "perihelion_argument": "217.8136588023099",
        "aphelion_distance": "2.598874648217938",
        "perihelion_time": "2457370.871059807286",
        "mean_anomaly": "356.6178653182958",
        "mean_motion": ".4040270598425839",
        "equinox": "J2000",
        "orbit_class": {
            "orbit_class_type": "AMO",
            "orbit_class_description": "Near-Earth asteroid orbits similar to that of 1221 Amor",
            "orbit_class_range": "1.017 AU < q (perihelion) < 1.3 AU"
        }
    },
    "is_sentry_object": false
}